start=new Date('2023-06-08T00:00:00.000Z').valueOf();
sats=[{"REV_AT_EPOCH":"6894","PERIAPSIS":"539.193","MEAN_ANOMALY":"261.7397","INCLINATION":"53.2168","BSTAR":"0.00005706400000","EPOCH":"2023-06-07T19:23:02.853888","GP_ID":"233433723","ECCENTRICITY":"0.00007760","OBJECT_ID":"2022-029AJ","MEAN_ELEMENT_THEORY":"SGP4","DECAY_DATE":null,"MEAN_MOTION_DOT":"0.00000621","APOAPSIS":"540.267","FILE":"3927436","RCS_SIZE":"LARGE","MEAN_MOTION":"15.08845104","TLE_LINE1":"1 52120U 22029AJ  23158.80767192  .00000621  00000-0  57064-4 0  9999","COUNTRY_CODE":"US","ARG_OF_PERICENTER":"98.3683","LAUNCH_DATE":"2022-03-19","CLASSIFICATION_TYPE":"U","TLE_LINE2":"2 52120  53.2168 274.7001 0000776  98.3683 261.7397 15.08845104 68943","SEMIMAJOR_AXIS":"6917.865","MEAN_MOTION_DDOT":"0.0000000000000","OBJECT_NAME":"STARLINK-3534","NORAD_CAT_ID":"52120","REF_FRAME":"TEME","EPHEMERIS_TYPE":"0","OBJECT_TYPE":"PAYLOAD","TIME_SYSTEM":"UTC","SITE":"AFETR","ELEMENT_SET_NO":"999","PERIOD":"95.437","RA_OF_ASC_NODE":"274.7001","CENTER_NAME":"EARTH"},{"ELEMENT_SET_NO":"999","PERIOD":"95.437","RA_OF_ASC_NODE":"264.8281","CENTER_NAME":"EARTH","COUNTRY_CODE":"US","TLE_LINE1":"1 52121U 22029AK  23158.77914987  .00000795  00000-0  67982-4 0  9994","NORAD_CAT_ID":"52121","OBJECT_NAME":"STARLINK-3678","ARG_OF_PERICENTER":"98.7011","LAUNCH_DATE":"2022-03-19","MEAN_MOTION_DDOT":"0.0000000000000","TLE_LINE2":"2 52121  53.2171 264.8281 0000807  98.7011 261.4073 15.08850815 69069","SEMIMAJOR_AXIS":"6917.847","CLASSIFICATION_TYPE":"U","REF_FRAME":"TEME","TIME_SYSTEM":"UTC","SITE":"AFETR","EPHEMERIS_TYPE":"0","OBJECT_TYPE":"PAYLOAD","MEAN_ELEMENT_THEORY":"SGP4","OBJECT_ID":"2022-029AK","DECAY_DATE":null,"MEAN_MOTION_DOT":"0.00000795","APOAPSIS":"540.271","MEAN_MOTION":"15.08850815","FILE":"3927436","RCS_SIZE":"LARGE","REV_AT_EPOCH":"6906","PERIAPSIS":"539.154","MEAN_ANOMALY":"261.4073","INCLINATION":"53.2171","BSTAR":"0.00006798200000","EPOCH":"2023-06-07T18:41:58.548768","ECCENTRICITY":"0.00008070","GP_ID":"233431972"},{"ELEMENT_SET_NO":"999","PERIOD":"95.437","RA_OF_ASC_NODE":"274.7333","CENTER_NAME":"EARTH","TLE_LINE1":"1 52122U 22029AL  23158.80031431  .00000235  00000-0  32817-4 0  9991","COUNTRY_CODE":"US","ARG_OF_PERICENTER":"93.4559","LAUNCH_DATE":"2022-03-19","TLE_LINE2":"2 52122  53.2170 274.7333 0000948  93.4559 266.6541 15.08845976 68936","MEAN_MOTION_DDOT":"0.0000000000000","SEMIMAJOR_AXIS":"6917.862","CLASSIFICATION_TYPE":"U","OBJECT_NAME":"STARLINK-3726","NORAD_CAT_ID":"52122","REF_FRAME":"TEME","OBJECT_TYPE":"PAYLOAD","EPHEMERIS_TYPE":"0","TIME_SYSTEM":"UTC","SITE":"AFETR","OBJECT_ID":"2022-029AL","MEAN_ELEMENT_THEORY":"SGP4","DECAY_DATE":null,"MEAN_MOTION_DOT":"0.00000235","APOAPSIS":"540.383","RCS_SIZE":"LARGE","FILE":"3927436","MEAN_MOTION":"15.08845976","REV_AT_EPOCH":"6893","INCLINATION":"53.2170","PERIAPSIS":"539.071","MEAN_ANOMALY":"266.6541","BSTAR":"0.00003281700000","EPOCH":"2023-06-07T19:12:27.156384","GP_ID":"233432721","ECCENTRICITY":"0.00009480"},{"MEAN_ELEMENT_THEORY":"SGP4","OBJECT_ID":"2022-029AM","DECAY_DATE":null,"MEAN_MOTION_DOT":"-0.00000662","APOAPSIS":"540.451","MEAN_MOTION":"15.08826036","RCS_SIZE":"LARGE","FILE":"3927174","REV_AT_EPOCH":"6902","PERIAPSIS":"539.125","MEAN_ANOMALY":"279.7532","INCLINATION":"53.2170","BSTAR":"-0.00002354400000","EPOCH":"2023-06-07T10:25:15.013056","ECCENTRICITY":"0.00009580","GP_ID":"233400760","ELEMENT_SET_NO":"999","PERIOD":"95.438","RA_OF_ASC_NODE":"266.3112","CENTER_NAME":"EARTH","COUNTRY_CODE":"US","TLE_LINE1":"1 52123U 22029AM  23158.43420154 -.00000662  00000-0 -23544-4 0  9998","NORAD_CAT_ID":"52123","OBJECT_NAME":"STARLINK-3725","ARG_OF_PERICENTER":"80.3568","LAUNCH_DATE":"2022-03-19","CLASSIFICATION_TYPE":"U","TLE_LINE2":"2 52123  53.2170 266.3112 0000958  80.3568 279.7532 15.08826036 69027","SEMIMAJOR_AXIS":"6917.923","MEAN_MOTION_DDOT":"0.0000000000000","REF_FRAME":"TEME","SITE":"AFETR","TIME_SYSTEM":"UTC","OBJECT_TYPE":"PAYLOAD","EPHEMERIS_TYPE":"0"},{"REF_FRAME":"TEME","EPHEMERIS_TYPE":"0","OBJECT_TYPE":"PAYLOAD","TIME_SYSTEM":"UTC","SITE":"AFETR","TLE_LINE1":"1 52124U 22029AN  23158.79295801  .00013874  00000-0  88787-3 0  9993","COUNTRY_CODE":"US","CLASSIFICATION_TYPE":"U","TLE_LINE2":"2 52124  53.2158 274.7666 0001081 118.4089 241.7012 15.08847284 68939","SEMIMAJOR_AXIS":"6917.858","MEAN_MOTION_DDOT":"0.0000000000000","LAUNCH_DATE":"2022-03-19","ARG_OF_PERICENTER":"118.4089","NORAD_CAT_ID":"52124","OBJECT_NAME":"STARLINK-3684","RA_OF_ASC_NODE":"274.7666","PERIOD":"95.437","ELEMENT_SET_NO":"999","CENTER_NAME":"EARTH","EPOCH":"2023-06-07T19:01:51.572064","GP_ID":"233433224","ECCENTRICITY":"0.00010810","MEAN_ANOMALY":"241.7012","PERIAPSIS":"538.975","INCLINATION":"53.2158","REV_AT_EPOCH":"6893","BSTAR":"0.00088787000000","APOAPSIS":"540.471","MEAN_MOTION_DOT":"0.00013874","RCS_SIZE":"LARGE","FILE":"3927436","MEAN_MOTION":"15.08847284","OBJECT_ID":"2022-029AN","MEAN_ELEMENT_THEORY":"SGP4","DECAY_DATE":null},{"DECAY_DATE":null,"MEAN_ELEMENT_THEORY":"SGP4","OBJECT_ID":"2022-029AP","MEAN_MOTION":"15.08841035","RCS_SIZE":"LARGE","FILE":"3927436","MEAN_MOTION_DOT":"0.00000730","APOAPSIS":"540.484","BSTAR":"0.00006393300000","REV_AT_EPOCH":"6906","PERIAPSIS":"539.001","MEAN_ANOMALY":"246.8516","INCLINATION":"53.2163","ECCENTRICITY":"0.00010720","GP_ID":"233432472","EPOCH":"2023-06-07T16:50:42.220320","CENTER_NAME":"EARTH","PERIOD":"95.437","ELEMENT_SET_NO":"999","RA_OF_ASC_NODE":"265.1778","OBJECT_NAME":"STARLINK-3727","NORAD_CAT_ID":"52125","ARG_OF_PERICENTER":"113.2589","LAUNCH_DATE":"2022-03-19","TLE_LINE2":"2 52125  53.2163 265.1778 0001072 113.2589 246.8516 15.08841035 69060","SEMIMAJOR_AXIS":"6917.877","CLASSIFICATION_TYPE":"U","MEAN_MOTION_DDOT":"0.0000000000000","COUNTRY_CODE":"US","TLE_LINE1":"1 52125U 22029AP  23158.70187755  .00000730  00000-0  63933-4 0  9997","SITE":"AFETR","TIME_SYSTEM":"UTC","OBJECT_TYPE":"PAYLOAD","EPHEMERIS_TYPE":"0","REF_FRAME":"TEME"},{"MEAN_MOTION_DOT":"0.00000778","APOAPSIS":"540.330","RCS_SIZE":"LARGE","FILE":"3927436","MEAN_MOTION":"15.08842772","OBJECT_ID":"2022-029AQ","MEAN_ELEMENT_THEORY":"SGP4","DECAY_DATE":null,"EPOCH":"2023-06-07T18:36:41.184288","GP_ID":"233432222","ECCENTRICITY":"0.00008570","REV_AT_EPOCH":"6906","PERIAPSIS":"539.144","INCLINATION":"53.2165","MEAN_ANOMALY":"279.7837","BSTAR":"0.00006694700000","ELEMENT_SET_NO":"999","PERIOD":"95.437","RA_OF_ASC_NODE":"264.8453","CENTER_NAME":"EARTH","REF_FRAME":"TEME","OBJECT_TYPE":"PAYLOAD","EPHEMERIS_TYPE":"0","SITE":"AFETR","TIME_SYSTEM":"UTC","TLE_LINE1":"1 52126U 22029AQ  23158.77547667  .00000778  00000-0  66947-4 0  9997","COUNTRY_CODE":"US","ARG_OF_PERICENTER":"80.3252","LAUNCH_DATE":"2022-03-19","MEAN_MOTION_DDOT":"0.0000000000000","TLE_LINE2":"2 52126  53.2165 264.8453 0000857  80.3252 279.7837 15.08842772 69060","SEMIMAJOR_AXIS":"6917.872","CLASSIFICATION_TYPE":"U","NORAD_CAT_ID":"52126","OBJECT_NAME":"STARLINK-3732"},{"RCS_SIZE":"LARGE","FILE":"3927436","MEAN_MOTION":"15.08844228","MEAN_MOTION_DOT":"0.00000892","APOAPSIS":"540.406","DECAY_DATE":null,"OBJECT_ID":"2022-029AR","MEAN_ELEMENT_THEORY":"SGP4","GP_ID":"233432974","ECCENTRICITY":"0.00009740","EPOCH":"2023-06-07T16:45:24.057504","BSTAR":"0.00007409900000","REV_AT_EPOCH":"6905","PERIAPSIS":"539.059","MEAN_ANOMALY":"262.4161","INCLINATION":"53.2159","CENTER_NAME":"EARTH","ELEMENT_SET_NO":"999","PERIOD":"95.437","RA_OF_ASC_NODE":"265.1930","OBJECT_TYPE":"PAYLOAD","EPHEMERIS_TYPE":"0","TIME_SYSTEM":"UTC","SITE":"AFETR","REF_FRAME":"TEME","LAUNCH_DATE":"2022-03-19","ARG_OF_PERICENTER":"97.6941","TLE_LINE2":"2 52127  53.2159 265.1930 0000974  97.6941 262.4161 15.08844228 69050","SEMIMAJOR_AXIS":"6917.867","CLASSIFICATION_TYPE":"U","MEAN_MOTION_DDOT":"0.0000000000000","OBJECT_NAME":"STARLINK-3715","NORAD_CAT_ID":"52127","TLE_LINE1":"1 52127U 22029AR  23158.69819511  .00000892  00000-0  74099-4 0  9993","COUNTRY_CODE":"US"},{"REF_FRAME":"TEME","TIME_SYSTEM":"UTC","SITE":"AFETR","EPHEMERIS_TYPE":"0","OBJECT_TYPE":"PAYLOAD","COUNTRY_CODE":"US","TLE_LINE1":"1 52129U 22029AT  23158.82331364  .00001552  00000-0  11557-3 0  9998","OBJECT_NAME":"STARLINK-3661","NORAD_CAT_ID":"52129","SEMIMAJOR_AXIS":"6917.854","TLE_LINE2":"2 52129  53.2157 264.6343 0000936  65.7827 294.3263 15.08848548 69088","MEAN_MOTION_DDOT":"0.0000000000000","CLASSIFICATION_TYPE":"U","ARG_OF_PERICENTER":"65.7827","LAUNCH_DATE":"2022-03-19","RA_OF_ASC_NODE":"264.6343","PERIOD":"95.437","ELEMENT_SET_NO":"999","CENTER_NAME":"EARTH","EPOCH":"2023-06-07T19:45:34.298496","ECCENTRICITY":"0.00009360","GP_ID":"233433724","MEAN_ANOMALY":"294.3263","PERIAPSIS":"539.072","INCLINATION":"53.2157","REV_AT_EPOCH":"6908","BSTAR":"0.00011557000000","APOAPSIS":"540.367","MEAN_MOTION_DOT":"0.00001552","MEAN_MOTION":"15.08848548","FILE":"3927436","RCS_SIZE":"LARGE","MEAN_ELEMENT_THEORY":"SGP4","OBJECT_ID":"2022-029AT","DECAY_DATE":null},{"BSTAR":"-0.00004216800000","MEAN_ANOMALY":"283.5775","PERIAPSIS":"539.200","INCLINATION":"53.2172","REV_AT_EPOCH":"6908","ECCENTRICITY":"0.00007900","GP_ID":"233431973","EPOCH":"2023-06-07T19:40:16.826016","DECAY_DATE":null,"MEAN_ELEMENT_THEORY":"SGP4","OBJECT_ID":"2022-029AV","MEAN_MOTION":"15.08839596","RCS_SIZE":"LARGE","FILE":"3927436","APOAPSIS":"540.293","MEAN_MOTION_DOT":"-0.00000959","OBJECT_NAME":"STARLINK-3711","NORAD_CAT_ID":"52131","TLE_LINE2":"2 52131  53.2172 264.6444 0000790  76.5305 283.5775 15.08839596 69080","SEMIMAJOR_AXIS":"6917.882","CLASSIFICATION_TYPE":"U","MEAN_MOTION_DDOT":"0.0000000000000","LAUNCH_DATE":"2022-03-19","ARG_OF_PERICENTER":"76.5305","COUNTRY_CODE":"US","TLE_LINE1":"1 52131U 22029AV  23158.81963919 -.00000959  00000-0 -42168-4 0  9992","SITE":"AFETR","TIME_SYSTEM":"UTC","EPHEMERIS_TYPE":"0","OBJECT_TYPE":"PAYLOAD","REF_FRAME":"TEME","CENTER_NAME":"EARTH","RA_OF_ASC_NODE":"264.6444","ELEMENT_SET_NO":"999","PERIOD":"95.438"}];
